[{"OBJECT_NAME":"COSMOS 2538","OBJECT_ID":"2019-039D","EPOCH":"2026-03-09T23:22:28.343424","MEAN_MOTION":15.19536029,"ECCENTRICITY":0.00437345,"INCLINATION":97.5929,"RA_OF_ASC_NODE":147.7512,"ARG_OF_PERICENTER":31.8471,"MEAN_ANOMALY":328.5393,"EPHEMERIS_TYPE":0,"CLASSIFICATION_TYPE":"U","NORAD_CAT_ID":44424,"ELEMENT_SET_NO":999,"REV_AT_EPOCH":36483,"BSTAR":0.00035711669,"MEAN_MOTION_DOT":7.713e-5,"MEAN_MOTION_DDOT":0},{"OBJECT_NAME":"STARLINK-5414","OBJECT_ID":"2022-175BD","EPOCH":"2026-03-09T05:04:24.496896","MEAN_MOTION":15.08838937,"ECCENTRICITY":0.00014074,"INCLINATION":53.2181,"RA_OF_ASC_NODE":30.8194,"ARG_OF_PERICENTER":99.2201,"MEAN_ANOMALY":260.895,"EPHEMERIS_TYPE":0,"CLASSIFICATION_TYPE":"U","NORAD_CAT_ID":54809,"ELEMENT_SET_NO":999,"REV_AT_EPOCH":18006,"BSTAR":9.1962618e-5,"MEAN_MOTION_DOT":1.176e-5,"MEAN_MOTION_DDOT":0}]
